{"type":"FeatureCollection","features":[{"type":"Feature","properties":{"kind":"country-border","countries":["SE","NO"]},"geometry":{"type":"LineString","coordinates":[[12.76335,61.43619],[12.58283,61.57403],[12.43467,61.5678],[12.16087,61.7253],[12.30215,62.26155],[12.05081,62.61598],[12.1301,62.75129],[12.07434,62.90339],[12.1961,62.9956],[11.96219,63.26811],[12.19792,63.47086],[12.13296,63.5842],[12.27294,63.65973],[12.29706,63.7149],[12.36346,63.75272],[12.65775,63.97136],[12.8715,64.04969],[13.17971,64.09587],[13.70608,64.04896],[13.96233,64.01419],[14.16233,64.20139],[14.1298,64.40599],[14.12362,64.4682],[14.07842,64.49159],[13.91574,64.51392],[13.66285,64.58978],[14.21061,65.06224],[14.33014,65.13104],[14.371,65.26003],[14.50003,65.31454],[14.50139,65.41521]]}},{"type":"Feature","properties":{"kind":"country-label","country":"SE"},"geometry":{"type":"Point","coordinates":[15.68685,63.40557]}},{"type":"Feature","properties":{"kind":"country-label","country":"NO"},"geometry":{"type":"Point","coordinates":[10.03428,63.75984]}}],"metadata":{"source":"SCB municipal boundaries (CC0), pinned 2026-09-12 snapshot","sourceUrl":"https://www.scb.se/contentassets/3443fea3fa6640f7a57ea15d9a372d33/shape_svenska_260225.zip","sourceSha256":"26a7030a23648ad25a69acee16f08974148eafd076bfa8dd76013060693f51f4","method":"Dissolve national polygons; clip mainland exterior to study extent; select contiguous exterior touching Norwegian study geography; simplify 100 m in EPSG:3035.","labelSource":"Representative interior points of each country study-area union","crs":"OGC:CRS84","simplificationMetres":100,"warning":"Simplified display border only. Does not establish legal accuracy or the research reference year."}}
